SL-3 R/B                
1 19046U 88032B   23291.95109362  .00007182  00000+0  47466-3 0  9990
2 19046  97.4283 276.2728 0034471  13.7852 346.4309 15.07191771920092
SL-16 R/B               
1 19120U 88039B   23291.94094415 -.00000096  00000+0 -22611-4 0  9996
2 19120  71.0126 113.6003 0023897 241.6146 118.2570 14.19346986834537
COSMOS 1953             
1 19210U 88050A   23291.76876775  .00006512  00000+0  38198-3 0  9999
2 19210  82.5144 304.4798 0014311 288.8888  71.0790 15.11509219905208
SL-8 R/B                
1 19257U 88053B   23292.13100411  .00000558  00000+0  19288-3 0  9995
2 19257  74.0457 279.5940 0021350 314.2446 118.2860 14.37948341851413
COSMOS 1975             
1 19573U 88093A   23292.39672624  .00010855  00000+0  65321-3 0  9998
2 19573  82.5260 260.8035 0014756 341.8841  18.1861 15.10627672908151
SL-14 R/B               
1 19574U 88093B   23291.87547544  .00000825  00000+0  95682-4 0  9993
2 19574  82.5302 140.3524 0022457  46.0274 324.6965 14.84057833871510
SL-16 R/B               
1 19650U 88102B   23291.71903892 -.00000159  00000+0 -56326-4 0  9998
2 19650  71.0003 187.9778 0016680 261.5187  98.4046 14.15918750803319
INTERCOSMOS 24          
1 20261U 89080A   23292.15968220  .00001142  00000+0  33257-3 0  9997
2 20261  82.6026 311.1365 1198479 154.1975 212.4288 12.57304836556639
SL-14 R/B               
1 20262U 89080C   23291.48690475  .00000391  00000+0  11259-3 0  9990
2 20262  82.5990  13.5446 1235030  19.3274 345.0655 12.49486513550629
DELTA 1 R/B             
1 20323U 89089B   23291.66172641  .00001207  00000+0  31690-3 0  9995
2 20323  97.0850 259.4793 0070931 357.7267   2.3597 14.49068633769223
ARIANE 40 R/B           
1 20443U 90005H   23291.46128056  .00000611  00000+0  21334-3 0  9999
2 20443  98.4266 356.8344 0009391 310.3831  49.6536 14.38650529767190
DELTA 2 R/B(1)          
1 20453U 90008B   23292.19124967  .00019797  00000+0  86744-3 0  9992
2 20453  35.6193 222.3877 0227107 106.3889 256.1924 15.00980192793056
COSMOS 2058             
1 20465U 90010A   23291.94463381  .00004363  00000+0  33575-3 0  9993
2 20465  82.4892 179.0965 0016061  52.6296 307.6388 15.01365138810853
SL-14 R/B               
1 20466U 90010B   23292.19337980  .00000887  00000+0  10851-3 0  9996
2 20466  82.5062   5.8851 0018954 294.6525  65.2715 14.82073878820240
SL-14 R/B               
1 20511U 90018B   23291.82293711  .00000740  00000+0  93022-4 0  9997
2 20511  82.5210 318.0686 0018764  81.8924  91.0706 14.80697535793346
HST                     
1 20580U 90037B   23291.95130855  .00007066  00000+0  36366-3 0  9992
2 20580  28.4678 163.8229 0002457 286.5234 190.0091 15.14500616640235
SL-16 R/B               
1 20625U 90046B   23291.86976553  .00000317  00000+0  18918-3 0  9990
2 20625  70.9994 330.6492 0014930 199.1159 160.9405 14.14776914724938
COSMOS 2084             
1 20663U 90055A   23292.48665632  .00005133  00000+0  39718-3 0  9996
2 20663  62.7927  50.6034 0129521  97.6586 263.9241 14.96308107805381
SL-6 R/B(2)             
1 20666U 90055D   23292.49267152  .00003440  00000+0  28222-3 0  9992
2 20666  62.7844 324.2501 0114753 119.3460 241.9157 14.96219099806817
SL-8 R/B                
1 20775U 90078B   23292.06436942  .00030686  00000+0  13140-2 0  9990
2 20775  82.9159 292.9961 0501818 348.3712  10.6222 14.52223093681083
SL-8 R/B                
1 21088U 91006B   23291.75403382  .00000229  00000+0  21569-3 0  9992
2 21088  82.9384  99.3591 0021720 322.8009  47.6289 13.77281834643909
OKEAN-3                 
1 21397U 91039A   23291.70415987  .00003994  00000+0  35067-3 0  9990
2 21397  82.5175  97.0729 0017877  49.5108 310.7668 14.96239417734116
COSMOS 2151             
1 21422U 91042A   23291.50065562  .00003261  00000+0  29928-3 0  9997
2 21422  82.5025 202.1364 0015320 116.2904 243.9893 14.94483457753672
SL-14 R/B               
1 21423U 91042B   23291.80927000  .00000740  00000+0  93764-4 0  9994
2 21423  82.4918 317.8859 0016333 223.1821 136.8113 14.80430216744908
ERS-1                   
1 21574U 91050A   23291.71918576  .00000575  00000+0  20321-3 0  9992
2 21574  98.7570 273.2900 0031491 270.6179  89.1399 14.38263350690199
ARIANE 40 R/B           
1 21610U 91050F   23291.93720767  .00000773  00000+0  25088-3 0  9995
2 21610  98.3241 355.4697 0003190 173.4913 186.6318 14.41534098693199
INTERCOSMOS 25          
1 21819U 91086A   23291.77728745  .00004345  00000+0  86997-3 0  9996
2 21819  82.6020 116.0053 1505545 192.5278 163.4063 12.07656817391128
SL-8 R/B                
1 21876U 92008B   23291.50165888  .00000152  00000+0  14028-3 0  9996
2 21876  82.9307 197.0279 0036052  54.3372 118.1053 13.75777291589347
SL-8 R/B                
1 21938U 92020B   23292.15425645  .00000235  00000+0  22806-3 0  9996
2 21938  82.9277  81.7378 0028546 210.9031 322.5612 13.75373970581487
COSMOS 2219             
1 22219U 92076A   23291.59867506 -.00000145  00000+0 -51529-4 0  9990
2 22219  71.0618  42.8310 0015493  94.3233 265.9660 14.13790937594966
SL-16 R/B               
1 22220U 92076B   23292.31221288  .00000370  00000+0  20911-3 0  9992
2 22220  71.0003 225.6477 0013669 335.4951 192.3320 14.16594153598606
COSMOS 2221             
1 22236U 92080A   23291.52642294  .00003248  00000+0  33081-3 0  9999
2 22236  82.5102  31.5152 0014845 232.3901 127.5971 14.90359521671526
SL-16 R/B               
1 22285U 92093B   23291.53821933  .00000287  00000+0  17217-3 0  9990
2 22285  71.0239  36.8975 0005503 221.7267 138.3437 14.15194012589932
COSMOS 2228             
1 22286U 92094A   23292.20823661  .00003061  00000+0  30806-3 0  9999
2 22286  82.5213 348.5190 0019881 352.2260   7.8647 14.90758779666850
SL-16 R/B               
1 22566U 93016B   23292.20482516  .00000413  00000+0  23740-3 0  9992
2 22566  71.0065 247.3294 0011672 220.3492 139.6766 14.15075574578740
COSMOS 2242             
1 22626U 93024A   23291.52309685  .00003131  00000+0  31749-3 0  9995
2 22626  82.5248  17.8510 0018026 355.9641   4.1429 14.90490369650377
SL-16 R/B               
1 22803U 93059B   23291.59374633  .00000357  00000+0  20115-3 0  9994
2 22803  70.9912  51.9462 0014969 102.0825 258.1977 14.16962254555845
ARIANE 40 R/B           
1 22830U 93061H   23291.89158892  .00000511  00000+0  20726-3 0  9997
2 22830  98.6037 357.0358 0010501 348.2030  11.8906 14.31880494569151
COSMOS 2278             
1 23087U 94023A   23291.47713428 -.00000010  00000+0  19418-4 0  9999
2 23087  71.0550 201.5057 0011541 280.5725  79.4097 14.14006817521603
SL-16 R/B               
1 23088U 94023B   23292.17379366  .00000014  00000+0  32054-4 0  9991
2 23088  70.9971 102.9521 0004136 215.0708 145.0143 14.14787234522944
SL-16 R/B               
1 23343U 94074B   23292.14709657  .00000983  00000+0  14425-3 0  9994
2 23343  97.8251 337.6669 0007027 164.5568 260.6913 14.77651104558528
SL-16 R/B               
1 23405U 94077B   23291.57511599  .00000002  00000+0  25329-4 0  9996
2 23405  70.9857  29.0368 0001855 346.3674  13.7398 14.15338770492681
ERS-2                   
1 23560U 95021A   23291.70638354  .00088296  00000+0  12561-2 0  9995
2 23560  98.5297 277.7264 0003623 108.1684 251.9961 15.56056733528251
ARIANE 40+ R/B          
1 23561U 95021B   23291.91588333  .00000665  00000+0  23187-3 0  9991
2 23561  98.5607 354.4764 0006125 224.9528 308.7410 14.38568186493709
SL-16 R/B               
1 23705U 95058B   23292.17570512  .00000434  00000+0  24733-3 0  9992
2 23705  71.0225 211.7544 0012325 359.1730   0.9370 14.15256869444694
SL-16 R/B               
1 24298U 96051B   23292.17207135 -.00000037  00000+0  66141-5 0  9993
2 24298  70.8238 219.6710 0016191 334.8127  25.2202 14.12515615398708
ORBVIEW 2 (SEASTAR)     
1 24883U 97037A   23292.16070729  .00000808  00000+0  30432-3 0  9991
2 24883  98.7428  63.8892 0003308 105.7523 254.4026 14.34207551383603
SL-16 R/B               
1 25400U 98043G   23291.57662165  .00000197  00000+0  10164-3 0  9991
2 25400  98.7158 228.5803 0010539  34.9381 325.2489 14.25653246314565
SL-16 R/B               
1 25407U 98045B   23292.18460378  .00000408  00000+0  23090-3 0  9997
2 25407  71.0117 216.0837 0009725 274.3382  85.6630 14.15943098303857
ISS (ZARYA)             
1 25544U 98067A   23292.57141824  .00101953  00000+0  18059-2 0  9993
2 25544  51.6415  72.4142 0001109 117.4309 295.3863 15.49452428421085
CZ-4B R/B               
1 25732U 99025C   23292.15608456  .00000207  00000+0  12230-3 0  9996
2 25732  98.7895 335.2690 0036722 330.8875  97.5167 14.17871012264648
OKEAN-O                 
1 25860U 99039A   23292.14300015  .00001530  00000+0  22029-3 0  9999
2 25860  98.0741 339.5407 0000821  83.0411 277.0892 14.77804273305490
SL-16 R/B               
1 25861U 99039B   23291.82516265  .00001181  00000+0  16473-3 0  9998
2 25861  98.1254 330.6053 0014918 196.2359 163.8376 14.79570375307698
DELTA 2 R/B             
1 25876U 99041E   23291.84116317  .00002083  00000+0  38526-3 0  9998
2 25876  51.7648 175.1833 0521549 301.5680  53.5327 14.07031525239926
HELIOS 1B               
1 25977U 99064A   23292.18218296  .00001626  00000+0  20386-3 0  9999
2 25977  98.2756 150.3682 0002079  50.7200 309.4197 14.83673764287027
TERRA                   
1 25994U 99068A   23292.51657669  .00001057  00000+0  23281-3 0  9995
2 25994  98.0817 357.7555 0002806  61.3239  55.5567 14.59383105267918
SL-16 R/B               
1 26070U 00006B   23291.83325476 -.00000015  00000+0  16527-4 0  9997
2 26070  70.9999 132.8206 0014562  67.3320 292.9341 14.15572135225026
TITAN 4B R/B            
1 26474U 00047B   23292.49853018  .00005139  00000+0  41079-3 0  9991
2 26474  67.9933 314.8335 0056002 293.5942  65.9327 14.99796557261773
ENVISAT                 
1 27386U 02009A   23292.53228321  .00000343  00000+0  12620-3 0  9994
2 27386  98.2480 257.5255 0001278  90.5162  21.4281 14.38430257133834
